[{"OBJECT_NAME":"STARLINK-30049","OBJECT_ID":"2023-056J","EPOCH":"2026-03-09T22:00:01.999584","MEAN_MOTION":15.2395029,"ECCENTRICITY":0.00020823,"INCLINATION":43.0011,"RA_OF_ASC_NODE":207.7366,"ARG_OF_PERICENTER":282.4938,"MEAN_ANOMALY":42.4645,"EPHEMERIS_TYPE":0,"CLASSIFICATION_TYPE":"U","NORAD_CAT_ID":56294,"ELEMENT_SET_NO":999,"REV_AT_EPOCH":577,"BSTAR":0.035657508,"MEAN_MOTION_DOT":0.00952866,"MEAN_MOTION_DDOT":0},{"OBJECT_NAME":"REAL","OBJECT_ID":"2025-154G","EPOCH":"2026-03-09T17:20:09.670560","MEAN_MOTION":15.28408058,"ECCENTRICITY":0.00018528,"INCLINATION":97.4133,"RA_OF_ASC_NODE":137.2581,"ARG_OF_PERICENTER":118.5876,"MEAN_ANOMALY":241.555,"EPHEMERIS_TYPE":0,"CLASSIFICATION_TYPE":"U","NORAD_CAT_ID":64875,"ELEMENT_SET_NO":999,"REV_AT_EPOCH":3483,"BSTAR":0.0008290401,"MEAN_MOTION_DOT":0.00022901,"MEAN_MOTION_DDOT":0}]
